C/2021 C5 (PANSTARRS),e,50.7923,323.6733,270.9136,1773,0.0000132,0.99817215,0.0000,02/10.9931/2023,2000,g  9.0,4.0
# From MPEC 2022-YB4
C/2021 C6 (Lemmon),e,164.6043,332.3458,203.8205,3303,0.0000052,0.99900713,0.0000,11/12.3473/2021,2000,g 12.0,4.0
# From MPEC 2022-F14
C/2021 D1 (SWAN),e,31.3941,311.2290,72.3446,101.7037,0.0009609,0.99110283,0.0000,02/27.7027/2021,2000,g 13.0,4.0
# From MPEC 2023-J29
C/2021 D2 (ZTF),h,02/03.8959/2022,83.7894,305.6545,125.0360,1.001557,2.946957,2000,9.0,4.0
# From MPEC 2022-UY9
A/2021 E2,e,167.4899,190.7939,342.2917,210.3693,0.0003230,0.98914932,0.0000,12/09.8333/2020,2000,g 15.0,2.0
# From MPEC 2024-GJ3
C/2021 E3 (ZTF),h,06/11.7135/2022,112.5299,104.4834,228.8278,1.000429,1.777119,2000,8.5,4.0
# From MPEC 2023-SQ0
A/2021 E4,e,116.3649,171.1607,48.2670,522.6704,0.0000825,0.99105095,0.0000,04/24.9654/2022,2000,g 13.5,22.0
# From MPEC 2022-QD9
C/2021 F1 (Lemmon-PANSTARRS),e,107.3137,203.4857,146.8923,243.7262,0.0002590,0.99590607,0.0000,04/06.7655/2022,2000,g 13.5,4.0
# From MPEC 2021-J72
C/2021 G1 (Leonard),e,131.5491,270.6999,107.4368,72.15161,0.0016082,0.95252884,1.7301,07/01.0/2024,2000,g 14.0,4.0
# From MPEC 2024-MB8
C/2021 G2 (ATLAS),h,09/09.2446/2024,48.4740,221.0946,343.2827,1.000128,4.982372,2000,5.5,4.0
# From MPEC 2022-X67
C/2021 G3 (PANSTARRS),e,102.8694,147.3773,10.5802,10287,0.0000009,0.99949643,0.0000,10/17.8773/2021,2000,g 10.5,4.0
# From MPEC 2021-Y10
P/2021 HS (PANSTARRS),e,12.1557,262.3628,46.1402,4.194254,0.1147419,0.80949526,121.6612,07/01.0/2024,2000,g 22.0,4.0
# From MPEC 2022-C56
C/2021 J1 (Maury-Attard),e,92.7122,88.4158,147.2679,26.28881,0.0073122,0.93389041,8.9766,07/01.0/2024,2000,g 15.5,4.0
# From MPEC 2023-XP6
C/2021 J2 (PANSTARRS),e,156.2123,23.3280,171.9417,114.6585,0.0008028,0.95899079,0.8135,07/01.0/2024,2000,g 12.0,4.0
# From MPEC 2024-F34
P/2021 J3 (ATLAS),e,14.5226,111.0888,125.8067,8.909081,0.0370642,0.44902166,67.6897,07/01.0/2024,2000,g  7.0,4.0
# From MPEC 2022-O08
C/2021 K1 (ATLAS),e,16.2732,140.9169,184.2618,12.63813,0.0219371,0.80212493,25.3263,07/01.0/2024,2000,g 11.0,4.0
# From MPEC 2022-O01
C/2021 K2 (MASTER),h,09/09.6173/2021,100.8648,282.3227,343.3345,1.000865,5.467977,2000,8.0,4.0
# From MPEC 2022-L66
C/2021 K3 (Catalina),h,02/03.9253/2022,134.7785,114.5865,182.0503,1.004483,5.231196,2000,10.0,4.0
# From MPEC 2021-W31
P/2021 L2 (Leonard),e,21.0648,266.6538,51.4885,4.048387,0.1209988,0.52076466,129.8748,07/01.0/2024,2000,g 17.0,4.0
# From MPEC 2024-H50
C/2021 L3 (Borisov),h,02/14.7335/2022,78.5608,344.9995,91.6345,1.004544,8.458833,2000,6.0,4.0
# From MPEC 2022-TA0
P/2021 N1 (ZTF),e,11.4885,301.1465,21.2389,2.978881,0.1917010,0.67591382,214.9131,07/01.0/2024,2000,g 19.0,4.0
# From MPEC 2024-GJ3
P/2021 N2 (Fuls),e,13.0612,221.7323,177.5645,6.943816,0.0538650,0.45252635,51.6935,07/01.0/2024,2000,g  9.5,4.0
# From MPEC 2022-YB4
C/2021 N3 (PANSTARRS),e,26.7510,337.5052,304.6992,144.8378,0.0005654,0.96053214,0.7989,07/01.0/2024,2000,g  8.5,4.0
# From MPEC 2022-A21
C/2021 O1 (Nishimura),e,27.5925,41.5893,74.3904,2997,0.0000060,0.99973854,0.0000,08/14.3519/2021,2000,g 10.5,4.0
# From MPEC 2022-L66
C/2021 O3 (PANSTARRS),h,04/21.1334/2022,56.8029,188.9390,299.9616,1.000043,0.285888,2000,10.5,4.0
# From MPEC 2024-F34
C/2021 P1 (PANSTARRS),e,51.6329,359.6910,40.5052,2912,0.0000063,0.99849686,0.0000,06/02.6227/2022,2000,g 11.0,4.0
# From MPEC 2024-MB8
C/2021 P2 (PANSTARRS),e,150.0622,32.0842,76.7213,6060,0.0000021,0.99916347,0.0000,01/23.0204/2023,2000,g  9.0,4.0
# From MPEC 2024-GJ3
P/2021 P3 (PANSTARRS),e,27.1610,358.2457,334.0740,4.412436,0.1063375,0.33861770,120.0075,07/01.0/2024,2000,g 14.0,4.0
# From MPEC 2023-A50
C/2021 P4 (ATLAS),e,56.3318,348.0579,175.7948,296.1808,0.0001934,0.99635572,0.0000,07/30.3430/2022,2000,g  9.5,4.0
# From MPEC 2023-E68
P/2021 PE20 (ATLAS),e,20.0007,99.6254,210.4655,3.745959,0.1359439,0.66993532,152.3467,07/01.0/2024,2000,g 17.0,4.0
# From MPEC 2023-FK0
C/2021 Q3 (ATLAS),e,77.7346,307.9143,114.1220,75.57337,0.0015002,0.93111199,1.3302,07/01.0/2024,2000,g  8.0,4.0
# From MPEC 2024-LE0
C/2021 Q4 (Fuls),h,06/11.4944/2023,71.4904,183.3272,147.0729,1.002797,7.565498,2000,6.0,4.0
# From MPEC 2022-C56
P/2021 Q5 (ATLAS),e,10.7399,239.7572,180.9375,3.286903,0.1653955,0.62466933,171.1877,07/01.0/2024,2000,g 15.0,4.0
# From MPEC 2023-XP6
C/2021 Q6 (PANSTARRS),h,03/25.1744/2024,161.8428,133.5455,141.0373,1.001873,8.707863,2000,6.0,4.0
# From MPEC 2023-FK0
C/2021 QM45 (PANSTARRS),e,22.8135,354.5972,72.8659,393.5674,0.0001262,0.99294868,0.0000,08/13.6613/2022,2000,g 11.0,4.0
# From MPEC 2022-X67
P/2021 R1 (PANSTARRS),e,5.5228,143.2226,220.2130,8.290604,0.0412881,0.41075062,38.4283,07/01.0/2024,2000,g 11.0,4.0
# From MPEC 2022-X67
C/2021 R2 (PANSTARRS),e,134.4837,16.3111,32.5136,4685,0.0000031,0.99843835,0.0000,12/27.9018/2021,2000,g  7.5,4.0
# From MPEC 2021-W31
P/2021 R3 (PANSTARRS),e,19.9336,304.1937,2.6784,3.770785,0.1346035,0.33104524,152.4762,07/01.0/2024,2000,g 16.0,4.0
# From MPEC 2021-W31
P/2021 R4 (Wierzchos),e,21.0230,321.2938,56.7280,5.625800,0.0738631,0.58574545,73.2013,07/01.0/2024,2000,g 16.0,4.0
# From MPEC 2024-JU4
P/2021 R5 (Rankin),e,7.8545,219.9544,167.5551,4.796203,0.0938335,0.30641292,84.4753,07/01.0/2024,2000,g 12.0,4.0
# From MPEC 2021-W31
P/2021 R6 (Groeller),e,34.9121,176.1605,220.8291,6.285960,0.0625384,0.59335945,60.8375,07/01.0/2024,2000,g 14.5,4.0
# From MPEC 2022-X67
C/2021 R7 (PANSTARRS),e,158.8656,170.1734,140.3267,885.3014,0.0000374,0.99361532,0.0000,04/16.7056/2021,2000,g 10.5,4.0
# From MPEC 2021-Y10
P/2021 R8 (Sheppard),e,2.2031,167.0741,190.8363,3.019255,0.1878687,0.29295013,187.4449,07/01.0/2024,2000,g 18.5,4.0
# From MPEC 2023-J29
C/2021 S1 (ATLAS),h,03/01.6089/2022,52.0503,299.8682,148.2467,1.002652,6.121318,2000,7.0,4.0
# From MPEC 2024-MB8
C/2021 S3 (PANSTARRS),h,02/14.7066/2024,58.5329,215.6207,6.8514,1.000229,1.320183,2000,5.5,4.0
# From MPEC 2024-GJ3
C/2021 S4 (Tsuchinshan),e,17.4782,5.4780,72.9483,161.6591,0.0004795,0.95861915,0.0862,07/01.0/2024,2000,g  6.5,4.0
# From MPEC 2022-OB6
C/2021 T1 (Lemmon),e,140.3614,56.8443,51.5676,2028,0.0000108,0.99849033,0.0000,10/14.4495/2021,2000,g 12.5,4.0
# From MPEC 2023-A50
C/2021 T2 (Fuls),h,06/08.0933/2022,117.5369,223.2322,263.5787,1.000521,1.246388,2000,12.0,4.0
# From MPEC 2024-MB8
C/2021 T4 (Lemmon),e,160.7782,257.8890,329.8131,19744,0.0000004,0.99992490,0.0000,07/31.5418/2023,2000,g  7.5,4.0
# From MPEC 2022-ED3
P/2021 U1 (Wierzchos),e,30.5519,246.7900,145.1797,8.534787,0.0395289,0.71297040,39.6823,07/01.0/2024,2000,g 14.5,4.0
# From MPEC 2022-L66
P/2021 U3 (Attard-Maury),e,69.9622,75.0943,335.2855,4.195380,0.1146957,0.54974944,112.4114,07/01.0/2024,2000,g 15.5,4.0
# From MPEC 2021-W31
C/2021 U4 (Leonard),e,152.8896,241.8086,237.3360,45.27486,0.0032353,0.96048790,2.9825,07/01.0/2024,2000,g 17.0,4.0
# From MPEC 2022-WQ9
C/2021 U5 (Catalina),e,39.0441,182.7268,321.4272,218.2107,0.0003058,0.98918386,0.0000,01/26.7138/2022,2000,g 13.0,4.0
# From MPEC 2022-CN4
C/2021 V1 (Rankin),e,71.4509,207.6741,195.1786,683.2009,0.0000552,0.99558470,0.0000,04/30.5966/2022,2000,g 13.0,4.0
# From MPEC 2024-JU4
P/2021 V2 (Fuls),e,12.6949,232.2756,259.8605,9.077854,0.0360354,0.61481884,18.9682,07/01.0/2024,2000,g 10.0,4.0
# From MPEC 2024-MB8
C/2021 X1 (Maury-Attard),h,05/27.1524/2023,140.0996,10.5941,334.5717,1.000274,3.233641,2000,7.0,4.0
# From MPEC 2024-E08
C/2021 X2 (Bok),h,07/08.1467/2022,137.1607,228.8249,193.3301,1.001045,2.996303,2000,13.0,4.0
# From MPEC 2024-GJ3
C/2021 Y1 (ATLAS),h,04/30.7770/2023,77.1946,244.7669,245.8366,1.001247,2.032564,2000,7.0,4.0
# From MPEC 2022-YN2
C/2022 A1 (Sarneczky),e,116.5441,285.5045,201.2485,354.5025,0.0001477,0.99646110,0.0000,01/31.0482/2022,2000,g 18.0,4.0
# From MPEC 2024-L77
C/2022 A2 (PANSTARRS),h,02/18.2157/2023,108.1368,171.5850,88.3681,1.000213,1.735503,2000,9.5,4.0
# From MPEC 2024-JU4
C/2022 A3 (Lemmon-ATLAS),e,88.3413,325.4713,234.8539,859.1800,0.0000391,0.99568924,0.0000,09/28.8794/2023,2000,g  8.0,4.0
# From MPEC 2022-K19
P/2022 B1 (Wierzchos),e,10.9909,325.4223,148.8806,5.467480,0.0770945,0.65343719,66.0222,07/01.0/2024,2000,g 16.5,4.0
# From MPEC 2022-YB4
A/2022 B3,e,132.0534,286.1870,150.6952,680.6796,0.0000555,0.99456317,0.0000,01/17.0977/2022,2000,g 16.5,2.0
# From MPEC 2022-GA9
C/2022 B4 (Bok),e,20.0483,340.5877,152.9594,387.6354,0.0001291,0.99644803,0.0000,01/30.1133/2022,2000,g 21.0,4.0
# From MPEC 2023-J29
P/2022 BV9 (Lemmon),e,11.9284,337.3107,16.3234,4.363769,0.1081213,0.23412098,145.5721,07/01.0/2024,2000,g  9.5,4.0
# From MPEC 2023-J29
P/2022 C1 (PANSTARRS),e,4.7624,113.1137,9.3813,7.228613,0.0507133,0.44882371,49.1514,07/01.0/2024,2000,g 12.0,4.0
# From MPEC 2023-VM5
P/2022 C2 (PANSTARRS),e,9.9832,135.2606,89.2034,6.035900,0.0664647,0.44184416,46.1935,07/01.0/2024,2000,g 12.5,4.0
# From MPEC 2023-UR6
P/2022 C3 (PANSTARRS),e,12.8213,139.0406,93.8627,9.621450,0.0330250,0.54551503,24.1589,07/01.0/2024,2000,g 11.5,4.0
# From MPEC 2022-K19
P/2022 D1 (PANSTARRS),e,44.0770,47.9580,88.6550,7.403685,0.0489252,0.54764108,50.7709,07/01.0/2024,2000,g 12.5,4.0
# From MPEC 2022-K19
C/2022 D2 (Kowalski),e,22.6663,312.4036,177.8083,377.9645,0.0001341,0.99589083,0.0000,03/27.7564/2022,2000,g 17.0,4.0
# From MPEC 2022-L66
P/2022 E1 (Christensen),e,19.0071,113.3449,114.9874,3.778821,0.1341744,0.22062330,100.9053,07/01.0/2024,2000,g 13.5,4.0
# From MPEC 2024-JU4
C/2022 E2 (ATLAS),h,09/14.1193/2024,137.1271,125.3713,41.7191,1.000902,3.666289,2000,5.0,4.0
# From MPEC 2024-GJ3
C/2022 E3 (ZTF),h,01/12.6961/2023,109.1688,302.5432,145.8092,1.000042,1.112582,2000,7.5,4.0
# From MPEC 2024-GJ3
C/2022 F1 (ATLAS),e,57.9875,350.6411,278.2939,3997,0.0000039,0.99850523,0.0000,08/05.1943/2022,2000,g  7.0,4.0
# From MPEC 2022-QD9
C/2022 F2 (NEOWISE),e,97.3138,58.7832,200.6209,23.93845,0.0084151,0.93362293,6.9928,07/01.0/2024,2000,g 14.5,4.0
# From MPEC 2024-JU4
C/2022 H1 (PANSTARRS),e,49.8606,6.3490,246.3029,889.3339,0.0000372,0.99135330,0.0000,01/19.0494/2024,2000,g  6.0,4.0
# From MPEC 2022-VC5
